{
  "type": "FeatureCollection",
  "features": [
    {
      "type": "Feature",
      "properties": {
        "norad_id": 41556,
        "name": "ZIYUAN 3-2 (ZY 3-2)",
        "group": "resource",
        "lat": 57.87697701552979,
        "lon": 45.96892665896251,
        "alt_km": 503.8934207074308,
        "timestamp": "2025-12-09T16:56:36.237459+00:00",
        "meta_object_name": "ZIYUAN 3-2 (ZY 3-2)",
        "meta_object_id": "2016-033A",
        "meta_epoch": "2025-12-09T11:57:02.556864",
        "meta_mean_motion": 15.21428125,
        "meta_eccentricity": 0.0012426,
        "meta_inclination": 97.4042,
        "meta_ra_of_asc_node": 57.718,
        "meta_arg_of_pericenter": 261.7233,
        "meta_mean_anomaly": 98.2594,
        "meta_ephemeris_type": 0,
        "meta_classification_type": "U",
        "meta_norad_cat_id": 41556,
        "meta_element_set_no": 999,
        "meta_rev_at_epoch": 52914,
        "meta_bstar": 0.00048777,
        "meta_mean_motion_dot": 0.00010912,
        "meta_mean_motion_ddot": 0,
        "tle_line1": "1 41556U 16033A   25343.49794626  .00010912  00000+0  48777-3 0  9996",
        "tle_line2": "2 41556  97.4042  57.7180 0012426 261.7233  98.2594 15.21428125529145"
      },
      "geometry": {
        "type": "Point",
        "coordinates": [
          45.96892665896251,
          57.87697701552979
        ]
      }
    },
    {
      "type": "Feature",
      "properties": {
        "norad_id": 41599,
        "name": "CARTOSAT-2C",
        "group": "resource",
        "lat": 26.080328581102993,
        "lon": 37.30183864576691,
        "alt_km": 502.1738158018534,
        "timestamp": "2025-12-09T16:56:36.237470+00:00",
        "meta_object_name": "CARTOSAT-2C",
        "meta_object_id": "2016-040A",
        "meta_epoch": "2025-12-09T12:05:08.988000",
        "meta_mean_motion": 15.19249481,
        "meta_eccentricity": 0.0010926,
        "meta_inclination": 97.4764,
        "meta_ra_of_asc_node": 40.787,
        "meta_arg_of_pericenter": 74.4858,
        "meta_mean_anomaly": 285.7582,
        "meta_ephemeris_type": 0,
        "meta_classification_type": "U",
        "meta_norad_cat_id": 41599,
        "meta_element_set_no": 999,
        "meta_rev_at_epoch": 52491,
        "meta_bstar": 0.00048426,
        "meta_mean_motion_dot": 0.00010159,
        "meta_mean_motion_ddot": 0,
        "tle_line1": "1 41599U 16040A   25343.50357625  .00010159  00000+0  48426-3 0  9991",
        "tle_line2": "2 41599  97.4764  40.7870 0010926  74.4858 285.7582 15.19249481524919"
      },
      "geometry": {
        "type": "Point",
        "coordinates": [
          37.30183864576691,
          26.080328581102993
        ]
      }
    },
    {
      "type": "Feature",
      "properties": {
        "norad_id": 41601,
        "name": "SKYSAT-C1",
        "group": "resource",
        "lat": -62.20729372042691,
        "lon": 34.336692201393,
        "alt_km": 475.47968672216757,
        "timestamp": "2025-12-09T16:56:36.237480+00:00",
        "meta_object_name": "SKYSAT-C1",
        "meta_object_id": "2016-040C",
        "meta_epoch": "2025-12-09T09:22:57.016416",
        "meta_mean_motion": 15.32493174,
        "meta_eccentricity": 0.0002745,
        "meta_inclination": 96.9826,
        "meta_ra_of_asc_node": 20.5932,
        "meta_arg_of_pericenter": 25.1532,
        "meta_mean_anomaly": 334.9844,
        "meta_ephemeris_type": 0,
        "meta_classification_type": "U",
        "meta_norad_cat_id": 41601,
        "meta_element_set_no": 999,
        "meta_rev_at_epoch": 52876,
        "meta_bstar": 0.00040405,
        "meta_mean_motion_dot": 0.00012613,
        "meta_mean_motion_ddot": 0,
        "tle_line1": "1 41601U 16040C   25343.39093769  .00012613  00000+0  40405-3 0  9994",
        "tle_line2": "2 41601  96.9826  20.5932 0002745  25.1532 334.9844 15.32493174528763"
      },
      "geometry": {
        "type": "Point",
        "coordinates": [
          34.336692201393,
          -62.20729372042691
        ]
      }
    },
    {
      "type": "Feature",
      "properties": {
        "norad_id": 41603,
        "name": "LAPAN-A3",
        "group": "resource",
        "lat": 82.59435537699429,
        "lon": -123.86395102459109,
        "alt_km": 465.7568465458835,
        "timestamp": "2025-12-09T16:56:36.237491+00:00",
        "meta_object_name": "LAPAN-A3",
        "meta_object_id": "2016-040E",
        "meta_epoch": "2025-12-09T11:50:22.386624",
        "meta_mean_motion": 15.31511824,
        "meta_eccentricity": 0.0010046,
        "meta_inclination": 97.1431,
        "meta_ra_of_asc_node": 341.1673,
        "meta_arg_of_pericenter": 346.3926,
        "meta_mean_anomaly": 13.7043,
        "meta_ephemeris_type": 0,
        "meta_classification_type": "U",
        "meta_norad_cat_id": 41603,
        "meta_element_set_no": 999,
        "meta_rev_at_epoch": 52576,
        "meta_bstar": 0.00020453,
        "meta_mean_motion_dot": 6.158e-05,
        "meta_mean_motion_ddot": 0,
        "tle_line1": "1 41603U 16040E   25343.49331466  .00006158  00000+0  20453-3 0  9994",
        "tle_line2": "2 41603  97.1431 341.1673 0010046 346.3926  13.7043 15.31511824525764"
      },
      "geometry": {
        "type": "Point",
        "coordinates": [
          -123.86395102459109,
          82.59435537699429
        ]
      }
    },
    {
      "type": "Feature",
      "properties": {
        "norad_id": 41604,
        "name": "BIROS",
        "group": "resource",
        "lat": 7.508957220496335,
        "lon": 14.081718956575743,
        "alt_km": 310.90460989384155,
        "timestamp": "2025-12-09T16:56:36.237502+00:00",
        "meta_object_name": "BIROS",
        "meta_object_id": "2016-040F",
        "meta_epoch": "2025-12-09T01:47:24.559584",
        "meta_mean_motion": 15.88119261,
        "meta_eccentricity": 0.00032029,
        "meta_inclination": 97.0691,
        "meta_ra_of_asc_node": 14.3635,
        "meta_arg_of_pericenter": 156.004,
        "meta_mean_anomaly": 204.1383,
        "meta_ephemeris_type": 0,
        "meta_classification_type": "U",
        "meta_norad_cat_id": 41604,
        "meta_element_set_no": 999,
        "meta_rev_at_epoch": 52814,
        "meta_bstar": 0.00066699357,
        "meta_mean_motion_dot": 0.00184271,
        "meta_mean_motion_ddot": 0,
        "tle_line1": "1 41604U 16040F   25343.07458981  .00184271  00000+0  66699-3 0  9996",
        "tle_line2": "2 41604  97.0691  14.3635 0003202 156.0040 204.1383 15.88119261528147"
      },
      "geometry": {
        "type": "Point",
        "coordinates": [
          14.081718956575743,
          7.508957220496335
        ]
      }
    },
    {
      "type": "Feature",
      "properties": {
        "norad_id": 41727,
        "name": "GAOFEN-3",
        "group": "resource",
        "lat": 56.098822352761296,
        "lon": -177.9539766524407,
        "alt_km": 745.2628585114135,
        "timestamp": "2025-12-09T16:56:36.237513+00:00",
        "meta_object_name": "GAOFEN-3",
        "meta_object_id": "2016-049A",
        "meta_epoch": "2025-12-09T13:02:43.737792",
        "meta_mean_motion": 14.42212803,
        "meta_eccentricity": 0.0001519,
        "meta_inclination": 98.4036,
        "meta_ra_of_asc_node": 349.1782,
        "meta_arg_of_pericenter": 64.1669,
        "meta_mean_anomaly": 295.9677,
        "meta_ephemeris_type": 0,
        "meta_classification_type": "U",
        "meta_norad_cat_id": 41727,
        "meta_element_set_no": 999,
        "meta_rev_at_epoch": 49131,
        "meta_bstar": 7.434e-05,
        "meta_mean_motion_dot": 2.01e-06,
        "meta_mean_motion_ddot": 0,
        "tle_line1": "1 41727U 16049A   25343.54356178  .00000201  00000+0  74340-4 0  9991",
        "tle_line2": "2 41727  98.4036 349.1782 0001519  64.1669 295.9677 14.42212803491315"
      },
      "geometry": {
        "type": "Point",
        "coordinates": [
          -177.9539766524407,
          56.098822352761296
        ]
      }
    },
    {
      "type": "Feature",
      "properties": {
        "norad_id": 41771,
        "name": "SKYSAT-C4",
        "group": "resource",
        "lat": 52.15884440679699,
        "lon": -161.94107437244733,
        "alt_km": 434.3119498943488,
        "timestamp": "2025-12-09T16:56:36.237523+00:00",
        "meta_object_name": "SKYSAT-C4",
        "meta_object_id": "2016-058B",
        "meta_epoch": "2025-12-09T00:49:12.473760",
        "meta_mean_motion": 15.42085038,
        "meta_eccentricity": 0.00011565,
        "meta_inclination": 96.9374,
        "meta_ra_of_asc_node": 8.402,
        "meta_arg_of_pericenter": 132.7744,
        "meta_mean_anomaly": 227.3602,
        "meta_ephemeris_type": 0,
        "meta_classification_type": "U",
        "meta_norad_cat_id": 41771,
        "meta_element_set_no": 999,
        "meta_rev_at_epoch": 51610,
        "meta_bstar": 0.00040944192,
        "meta_mean_motion_dot": 0.00017439,
        "meta_mean_motion_ddot": 0,
        "tle_line1": "1 41771U 16058B   25343.03417215  .00017439  00000+0  40944-3 0  9997",
        "tle_line2": "2 41771  96.9374   8.4020 0001156 132.7744 227.3602 15.42085038516106"
      },
      "geometry": {
        "type": "Point",
        "coordinates": [
          -161.94107437244733,
          52.15884440679699
        ]
      }
    }
  ]
}